STARLINK-2040           
1 47656U 21012AN  23316.58461607  .00009935  00000+0  68479-3 0  9998
2 47656  53.0535 258.9105 0001185  90.2224 269.8900 15.06407832151912
STARLINK-2041           
1 47657U 21012AP  23316.92187632  .00002920  00000+0  21485-3 0  9993
2 47657  53.0541 277.3988 0001624  97.4897 262.6277 15.06398738152202
STARLINK-2042           
1 47658U 21012AQ  23316.91449723 -.00002745  00000+0 -16557-3 0  9996
2 47658  53.0560 277.4307 0001079  94.6648 265.4465 15.06379546152225
STARLINK-2043           
1 47659U 21012AR  23316.87395301  .00000315  00000+0  40035-4 0  9992
2 47659  53.0524 157.6109 0001546  82.9626 277.1539 15.06408662153854
STARLINK-2044           
1 47660U 21012AS  23316.82703850  .00001592  00000+0  12573-3 0  9994
2 47660  53.0524 148.4503 0001319  93.4346 266.6794 15.06407803153982
STARLINK-2051           
1 47661U 21012AT  23316.54775039  .00003555  00000+0  25753-3 0  9997
2 47661  53.0536 259.0753 0001116 107.0070 253.1042 15.06388683152411
STARLINK-2052           
1 47662U 21012AU  23316.06395336  .00011381  00000+0  78151-3 0  9999
2 47662  53.0537 261.2489 0001000  81.7711 278.3391 15.06408843152367
STARLINK-2053           
1 47663U 21012AV  23316.92375692  .00002140  00000+0  16253-3 0  9996
2 47663  53.0528 177.7083 0001444  95.6354 264.4800 15.06401635153609
STARLINK-2054           
1 47664U 21012AW  23316.13123523  .00017428  00000+0  11853-2 0  9999
2 47664  53.0541 260.9470 0001425 102.2286 257.8863 15.06421217152374
STARLINK-2056           
1 47665U 21012AX  23316.84124809 -.00000253  00000+0  19038-5 0  9991
2 47665  53.0554 252.8036 0001684  94.0120 266.1061 15.06396096152547
STARLINK-2057           
1 47666U 21012AY  23316.83760150  .00009781  00000+0  67442-3 0  9990
2 47666  53.0561 253.1304 0002064  98.9797 261.1426 15.06411085152540
STARLINK-2058           
1 47667U 21012AZ  23316.62699985  .00002982  00000+0  21902-3 0  9992
2 47667  53.0546 278.7213 0001854  92.5958 267.5243 15.06398343152145
STARLINK-2059           
1 47668U 21012BA  23316.53669830 -.00000360  00000+0 -52621-5 0  9993
2 47668  53.0546 259.1242 0001626  93.3724 266.7451 15.06403309151913
STARLINK-2062           
1 47670U 21012BC  23316.55144114  .00005938  00000+0  41724-3 0  9995
2 47670  53.0534 259.0616 0001544  88.6889 271.4277 15.06397387151912
STARLINK-2064           
1 47671U 21012BD  23316.26761218  .00011351  00000+0  77927-3 0  9994
2 47671  53.0553 260.3348 0001549 124.0319 236.0817 15.06419662152390
STARLINK-2065           
1 47672U 21012BE  23316.81677417  .00030289  00000+0  20421-2 0  9990
2 47672  53.0546 247.5894 0004269  87.2508 272.8970 15.06422081152597
STARLINK-2066           
1 47673U 21012BF  23316.82050572  .00010145  00000+0  69882-3 0  9993
2 47673  53.0537 257.8525 0002476  91.1191 269.0082 15.06409664152463
STARLINK-2067           
1 47674U 21012BG  23316.83431751  .00004012  00000+0  28807-3 0  9995
2 47674  53.0534 257.7810 0001953  83.8480 276.2731 15.06405569152477
STARLINK-2078           
1 47675U 21012BH  23316.82788124  .00006668  00000+0  46600-3 0  9994
2 47675  53.0538 257.8196 0002351  83.1958 276.9298 15.06409066152477
STARLINK-2083           
1 47676U 21012BJ  23316.82327144  .00004949  00000+0  35070-3 0  9995
2 47676  53.0533 147.8392 0001487  86.5293 273.5866 15.06422395153999
STARLINK-2090           
1 47677U 21012BK  23316.61498983  .00001661  00000+0  13033-3 0  9996
2 47677  53.0541 278.7627 0001836  80.0396 280.0801 15.06411646152151
STARLINK-2095           
1 47679U 21012BM  23316.31273851  .00000275  00000+0  37343-4 0  9991
2 47679  53.0549 280.1293 0001401  95.6377 264.4772 15.06401234152128
STARLINK-2068           
1 47722U 21017A   23316.68737419  .00019183  00000+0  13022-2 0  9994
2 47722  53.0557  43.6948 0001537 108.0738 252.0419 15.06429072150179
STARLINK-2107           
1 47723U 21017B   23316.76153566 -.00000206  00000+0  50380-5 0  9997
2 47723  53.0552 338.1177 0001385  86.1808 273.9339 15.06402135151069
STARLINK-2116           
1 47724U 21017C   23316.79839981  .00009149  00000+0  63220-3 0  9992
2 47724  53.0535 337.9552 0001588  83.4367 276.6802 15.06404129151037
STARLINK-2125           
1 47725U 21017D   23316.56709479  .00010154  00000+0  69928-3 0  9995
2 47725  53.0545  48.9864 0001422  95.2386 264.8765 15.06415736149404
STARLINK-2126           
1 47726U 21017E   23316.56187772  .00023683  00000+0  14103-2 0  9997
2 47726  53.0569  47.7321 0001113 293.0745  67.0129 15.11114349150041
STARLINK-2129           
1 47727U 21017F   23316.76888676 -.00000163  00000+0  79575-5 0  9997
2 47727  53.0535 328.0857 0001632  97.9798 262.1376 15.06400108151216
STARLINK-2131           
1 47728U 21017G   23316.52653921  .00020417  00000+0  13831-2 0  9998
2 47728  53.0554  49.1723 0001772  88.2197 271.8995 15.06466996149401
STARLINK-2132           
1 47729U 21017H   23316.42292105  .00012041  00000+0  82570-3 0  9992
2 47729  53.0544 354.8424 0001480  82.7025 277.4132 15.06406787150779
STARLINK-2140           
1 47730U 21017J   23316.74816506  .00014224  00000+0  97134-3 0  9993
2 47730  53.0548  63.1855 0001534  93.5857 266.5307 15.06419315149857
STARLINK-2141           
1 47731U 21017K   23316.68780970  .00009527  00000+0  65736-3 0  9995
2 47731  53.0546  58.4472 0001319  87.8157 272.2983 15.06415160149924
STARLINK-2142           
1 47732U 21017L   23316.79336175  .00005833  00000+0  41016-3 0  9993
2 47732  53.0536 333.2150 0001638  90.9777 269.1400 15.06401822151122
STARLINK-2143           
1 47733U 21017M   23316.60948925  .00012367  00000+0  84682-3 0  9992
2 47733  53.0541  68.8001 0001162  95.8640 264.2482 15.06436857149815
STARLINK-2144           
1 47734U 21017N   23316.56248691  .00008602  00000+0  59529-3 0  9990
2 47734  53.0553  59.0096 0001416  95.3143 264.8008 15.06422131149269
STARLINK-2146           
1 47735U 21017P   23316.77768263  .00006668  00000+0  46610-3 0  9993
2 47735  53.0544 343.2054 0001521  81.0536 279.0625 15.06401703150972
STARLINK-2147           
1 47736U 21017Q   23316.53023823  .00019442  00000+0  13200-2 0  9996
2 47736  53.0549  49.1558 0001464  75.3615 284.7537 15.06415088150087
STARLINK-2148           
1 47737U 21017R   23316.92464535  .00001037  00000+0  40634-4 0  9993
2 47737  53.0548 222.7367 0001189  90.0770 270.0368 15.35406142152753
STARLINK-2149           
1 47738U 21017S   23317.00001157  .00704979  00000+0  11069-1 0  9993
2 47738  53.0529  43.3563 0001118  75.6524 315.6215 15.50974114  5778
STARLINK-2150           
1 47739U 21017T   23316.59243832  .00013198  00000+0  90228-3 0  9997
2 47739  53.0539  73.8744 0001058 107.0378 253.0726 15.06441035149064
STARLINK-2152           
1 47740U 21017U   23316.57355153  .00000310  00000+0  39668-4 0  9991
2 47740  53.0545  58.9572 0001270  97.2730 262.8403 15.06407664149266
STARLINK-2154           
1 47741U 21017V   23316.72098094  .00010933  00000+0  75151-3 0  9995
2 47741  53.0549  58.2998 0001206  94.6169 265.4958 15.06411221149923
STARLINK-2156           
1 47742U 21017W   23316.53392185  .00019440  00000+0  13197-2 0  9996
2 47742  53.0543  49.1356 0001324  98.5180 261.5959 15.06418391150084
STARLINK-2157           
1 47743U 21017X   23316.49337425  .00002195  00000+0  16609-3 0  9999
2 47743  53.0559  49.3210 0000933  88.1726 271.9369 15.06417934150058
STARLINK-2158           
1 47744U 21017Y   23316.53297655  .00019640  00000+0  13331-2 0  9996
2 47744  53.0546  49.0933 0001212  64.8169 295.2946 15.06418037149409
STARLINK-2159           
1 47745U 21017Z   23316.56620466  .00021026  00000+0  14264-2 0  9997
2 47745  53.0556  58.9953 0001354  74.3630 285.7509 15.06396326149896
STARLINK-2160           
1 47746U 21017AA  23316.55881065  .00013047  00000+0  89296-3 0  9993
2 47746  53.0542  59.0263 0001467  78.9279 281.1875 15.06409245149882
STARLINK-2161           
1 47747U 21017AB  23316.55603434  .00006145  00000+0  43092-3 0  9991
2 47747  53.0555  49.0418 0001365  88.3089 271.8056 15.06413723150064
STARLINK-2162           
1 47748U 21017AC  23316.68135558  .00019063  00000+0  12942-2 0  9995
2 47748  53.0563  48.4743 0001662 101.0442 259.0734 15.06427836150054
STARLINK-2163           
1 47749U 21017AD  23316.56341075  .00014407  00000+0  98314-3 0  9991
2 47749  53.0550  49.0084 0001408  94.8977 265.2172 15.06436764150039
STARLINK-2164           
1 47750U 21017AE  23316.54129353  .00014697  00000+0  10027-2 0  9999
2 47750  53.0552  49.1040 0000777  72.5154 287.5920 15.06430188149405
STARLINK-2168           
1 47751U 21017AF  23316.50536368  .00018480  00000+0  12553-2 0  9994
2 47751  53.0547  39.2665 0001255  70.6277 289.4848 15.06428192149536
STARLINK-2169           
1 47752U 21017AG  23316.67171156  .00013532  00000+0  92591-3 0  9997
2 47752  53.0553  53.5196 0001525  71.4710 288.6444 15.06387687150036
STARLINK-2170           
1 47753U 21017AH  23316.58091266  .00006637  00000+0  46387-3 0  9991
2 47753  53.0561  58.9256 0001622  90.5144 269.6030 15.06415468149940
STARLINK-2171           
1 47754U 21017AJ  23316.68412182  .00010961  00000+0  75332-3 0  9994
2 47754  53.0555  58.4658 0001121  87.8596 272.2522 15.06411984149922
STARLINK-2174           
1 47756U 21017AL  23316.68045232  .00023700  00000+0  16038-2 0  9996
2 47756  53.0545  58.4802 0001361  73.9286 286.1853 15.06418695149963
STARLINK-2175           
1 47757U 21017AM  23316.66569379  .00016501  00000+0  11234-2 0  9992
2 47757  53.0548  58.5474 0001281  88.4100 271.7036 15.06421998149907
STARLINK-2178           
1 47760U 21017AQ  23316.63159637  .00006032  00000+0  42334-3 0  9999
2 47760  53.0540  68.6966 0001437  84.1046 276.0107 15.06411483149798
STARLINK-2179           
1 47761U 21017AR  23316.59565977  .00015599  00000+0  10633-2 0  9997
2 47761  53.0544  58.8619 0001282 101.5344 258.5789 15.06415994149907
